{
  "type": "FeatureCollection",
  "features": [
    {
      "type": "Feature",
      "properties": {
        "norad_id": 59626,
        "name": "LEGION 2",
        "group": "resource",
        "lat": -22.351919230183906,
        "lon": -124.46598141144767,
        "alt_km": 523.0038482054506,
        "timestamp": "2025-12-09T21:34:11.064949+00:00",
        "meta_object_name": "LEGION 2",
        "meta_object_id": "2024-081B",
        "meta_epoch": "2025-12-09T14:20:40.600896",
        "meta_mean_motion": 15.16443135,
        "meta_eccentricity": 0.00058265,
        "meta_inclination": 97.5215,
        "meta_ra_of_asc_node": 58.3499,
        "meta_arg_of_pericenter": 307.1855,
        "meta_mean_anomaly": 52.8846,
        "meta_ephemeris_type": 0,
        "meta_classification_type": "U",
        "meta_norad_cat_id": 59626,
        "meta_element_set_no": 999,
        "meta_rev_at_epoch": 8880,
        "meta_bstar": 0.00036875342,
        "meta_mean_motion_dot": 7.109e-05,
        "meta_mean_motion_ddot": 0,
        "tle_line1": "1 59626U 24081B   25343.59769214  .00007109  00000+0  36875-3 0  9991",
        "tle_line2": "2 59626  97.5215  58.3499 0005826 307.1855  52.8846 15.16443135 88807"
      },
      "geometry": {
        "type": "Point",
        "coordinates": [
          -124.46598141144767,
          -22.351919230183906
        ]
      }
    },
    {
      "type": "Feature",
      "properties": {
        "norad_id": 60182,
        "name": "ALOS-4 (DAICHI-4)",
        "group": "resource",
        "lat": -56.650358617728116,
        "lon": -113.42980897586555,
        "alt_km": 638.7965691378586,
        "timestamp": "2025-12-09T21:34:11.064959+00:00",
        "meta_object_name": "ALOS-4 (DAICHI-4)",
        "meta_object_id": "2024-123A",
        "meta_epoch": "2025-12-09T14:00:25.667424",
        "meta_mean_motion": 14.79471635,
        "meta_eccentricity": 0.00014382,
        "meta_inclination": 97.9226,
        "meta_ra_of_asc_node": 78.4757,
        "meta_arg_of_pericenter": 102.2084,
        "meta_mean_anomaly": 257.9289,
        "meta_ephemeris_type": 0,
        "meta_classification_type": "U",
        "meta_norad_cat_id": 60182,
        "meta_element_set_no": 999,
        "meta_rev_at_epoch": 7784,
        "meta_bstar": 0.00049080416,
        "meta_mean_motion_dot": 3.616e-05,
        "meta_mean_motion_ddot": 0,
        "tle_line1": "1 60182U 24123A   25343.58363041  .00003616  00000+0  49080-3 0  9995",
        "tle_line2": "2 60182  97.9226  78.4757 0001438 102.2084 257.9289 14.79471635 77840"
      },
      "geometry": {
        "type": "Point",
        "coordinates": [
          -113.42980897586555,
          -56.650358617728116
        ]
      }
    },
    {
      "type": "Feature",
      "properties": {
        "norad_id": 60452,
        "name": "LEGION 3",
        "group": "resource",
        "lat": -34.12949962182341,
        "lon": -171.93427726558565,
        "alt_km": 515.4392870359507,
        "timestamp": "2025-12-09T21:34:11.064969+00:00",
        "meta_object_name": "LEGION 3",
        "meta_object_id": "2024-146A",
        "meta_epoch": "2025-12-09T11:03:30.979008",
        "meta_mean_motion": 15.15708093,
        "meta_eccentricity": 0.00145185,
        "meta_inclination": 45.0025,
        "meta_ra_of_asc_node": 327.7103,
        "meta_arg_of_pericenter": 180.8682,
        "meta_mean_anomaly": 179.2173,
        "meta_ephemeris_type": 0,
        "meta_classification_type": "U",
        "meta_norad_cat_id": 60452,
        "meta_element_set_no": 999,
        "meta_rev_at_epoch": 7323,
        "meta_bstar": 0.00041992573,
        "meta_mean_motion_dot": 7.898e-05,
        "meta_mean_motion_ddot": 0,
        "tle_line1": "1 60452U 24146A   25343.46077522  .00007898  00000+0  41993-3 0  9994",
        "tle_line2": "2 60452  45.0025 327.7103 0014518 180.8682 179.2173 15.15708093 73234"
      },
      "geometry": {
        "type": "Point",
        "coordinates": [
          -171.93427726558565,
          -34.12949962182341
        ]
      }
    },
    {
      "type": "Feature",
      "properties": {
        "norad_id": 60453,
        "name": "LEGION 4",
        "group": "resource",
        "lat": -31.985444377468824,
        "lon": -84.2789376976584,
        "alt_km": 519.1697657245959,
        "timestamp": "2025-12-09T21:34:11.064980+00:00",
        "meta_object_name": "LEGION 4",
        "meta_object_id": "2024-146B",
        "meta_epoch": "2025-12-09T14:14:19.558752",
        "meta_mean_motion": 15.15772949,
        "meta_eccentricity": 0.00097497,
        "meta_inclination": 45.0385,
        "meta_ra_of_asc_node": 58.7414,
        "meta_arg_of_pericenter": 294.7535,
        "meta_mean_anomaly": 65.2329,
        "meta_ephemeris_type": 0,
        "meta_classification_type": "U",
        "meta_norad_cat_id": 60453,
        "meta_element_set_no": 999,
        "meta_rev_at_epoch": 7210,
        "meta_bstar": 0.00041616331,
        "meta_mean_motion_dot": 7.829e-05,
        "meta_mean_motion_ddot": 0,
        "tle_line1": "1 60453U 24146B   25343.59328193  .00007829  00000+0  41616-3 0  9998",
        "tle_line2": "2 60453  45.0385  58.7414 0009749 294.7535  65.2329 15.15772949 72105"
      },
      "geometry": {
        "type": "Point",
        "coordinates": [
          -84.2789376976584,
          -31.985444377468824
        ]
      }
    },
    {
      "type": "Feature",
      "properties": {
        "norad_id": 60989,
        "name": "SENTINEL-2C",
        "group": "resource",
        "lat": 41.26164609209374,
        "lon": -115.97675340286519,
        "alt_km": 785.0294779335991,
        "timestamp": "2025-12-09T21:34:11.064990+00:00",
        "meta_object_name": "SENTINEL-2C",
        "meta_object_id": "2024-157A",
        "meta_epoch": "2025-12-09T10:51:24.113952",
        "meta_mean_motion": 14.30815888,
        "meta_eccentricity": 0.00011938,
        "meta_inclination": 98.5685,
        "meta_ra_of_asc_node": 55.9822,
        "meta_arg_of_pericenter": 97.8773,
        "meta_mean_anomaly": 262.2545,
        "meta_ephemeris_type": 0,
        "meta_classification_type": "U",
        "meta_norad_cat_id": 60989,
        "meta_element_set_no": 999,
        "meta_rev_at_epoch": 6585,
        "meta_bstar": 0.00014030741,
        "meta_mean_motion_dot": 3.24e-06,
        "meta_mean_motion_ddot": 0,
        "tle_line1": "1 60989U 24157A   25343.45236243  .00000324  00000+0  14031-3 0  9997",
        "tle_line2": "2 60989  98.5685  55.9822 0001193  97.8773 262.2545 14.30815888 65857"
      },
      "geometry": {
        "type": "Point",
        "coordinates": [
          -115.97675340286519,
          41.26164609209374
        ]
      }
    },
    {
      "type": "Feature",
      "properties": {
        "norad_id": 61735,
        "name": "IONOSFERA-M 1",
        "group": "resource",
        "lat": 51.87997351725739,
        "lon": 45.076329056226655,
        "alt_km": 811.495504150168,
        "timestamp": "2025-12-09T21:34:11.065000+00:00",
        "meta_object_name": "IONOSFERA-M 1",
        "meta_object_id": "2024-199A",
        "meta_epoch": "2025-12-09T15:54:37.605600",
        "meta_mean_motion": 14.22713088,
        "meta_eccentricity": 0.00011052,
        "meta_inclination": 98.7412,
        "meta_ra_of_asc_node": 213.5347,
        "meta_arg_of_pericenter": 25.9937,
        "meta_mean_anomaly": 334.1296,
        "meta_ephemeris_type": 0,
        "meta_classification_type": "U",
        "meta_norad_cat_id": 61735,
        "meta_element_set_no": 999,
        "meta_rev_at_epoch": 10075,
        "meta_bstar": 8.3671407e-05,
        "meta_mean_motion_dot": 1.43e-06,
        "meta_mean_motion_ddot": 0,
        "tle_line1": "1 61735U 24199A   25343.66293525  .00000143  00000+0  83671-4 0  9998",
        "tle_line2": "2 61735  98.7412 213.5347 0001105  25.9937 334.1296 14.22713088100759"
      },
      "geometry": {
        "type": "Point",
        "coordinates": [
          45.076329056226655,
          51.87997351725739
        ]
      }
    },
    {
      "type": "Feature",
      "properties": {
        "norad_id": 61736,
        "name": "IONOSFERA-M 2",
        "group": "resource",
        "lat": -49.47553417239967,
        "lon": -135.95094210097216,
        "alt_km": 824.1122134870911,
        "timestamp": "2025-12-09T21:34:11.065010+00:00",
        "meta_object_name": "IONOSFERA-M 2",
        "meta_object_id": "2024-199B",
        "meta_epoch": "2025-12-09T15:03:15.079968",
        "meta_mean_motion": 14.22715244,
        "meta_eccentricity": 0.0001575,
        "meta_inclination": 98.7404,
        "meta_ra_of_asc_node": 213.4118,
        "meta_arg_of_pericenter": 114.2569,
        "meta_mean_anomaly": 245.8774,
        "meta_ephemeris_type": 0,
        "meta_classification_type": "U",
        "meta_norad_cat_id": 61736,
        "meta_element_set_no": 999,
        "meta_rev_at_epoch": 10387,
        "meta_bstar": 8.3199805e-05,
        "meta_mean_motion_dot": 1.42e-06,
        "meta_mean_motion_ddot": 0,
        "tle_line1": "1 61736U 24199B   25343.62725787  .00000142  00000+0  83200-4 0  9992",
        "tle_line2": "2 61736  98.7404 213.4118 0001575 114.2569 245.8774 14.22715244103871"
      },
      "geometry": {
        "type": "Point",
        "coordinates": [
          -135.95094210097216,
          -49.47553417239967
        ]
      }
    }
  ]
}